<!DOCTYPE html>
<html lang="en">
<head>
    <meta charset="UTF-8">
    <meta name="viewport" content="width=device-width, initial-scale=1.0">
    <title>Latest Space Object</title>
    <link rel="stylesheet" href="styles.css">
</head>
<body>
    <header>
        <div class="logo">
            <img src="images/logo.jpg" alt="1663 Industries Logo">
        </div>
        <nav>
            <ul>
                <li><a href="index.html#home">Home</a></li>
                <li><a href="index.html#tenants">Tenants</a></li>
                <li><a href="index.html#projects">Projects</a></li>
                <li><a href="index.html#contact">Contact</a></li>
                <li><a href="index.html#about">About</a></li>
            </ul>
        </nav>
    </header>
    <main>
        <section class="hero">
            <h1>Latest object in the catalog</h1>
            <pre>{
    "CCSDS_OMM_VERS": "3.0",
    "COMMENT": "GENERATED VIA SPACE-TRACK.ORG API",
    "CREATION_DATE": "2024-06-02T19:59:57",
    "ORIGINATOR": "18 SPCS",
    "OBJECT_NAME": "GEOTAIL",
    "OBJECT_ID": "1992-044A",
    "CENTER_NAME": "EARTH",
    "REF_FRAME": "TEME",
    "TIME_SYSTEM": "UTC",
    "MEAN_ELEMENT_THEORY": "SGP4",
    "EPOCH": "2024-06-07T14:26:59.964288",
    "MEAN_MOTION": "0.19222878",
    "ECCENTRICITY": "0.53843800",
    "INCLINATION": "47.5110",
    "RA_OF_ASC_NODE": "21.6119",
    "ARG_OF_PERICENTER": "238.8697",
    "MEAN_ANOMALY": "358.2175",
    "EPHEMERIS_TYPE": "0",
    "CLASSIFICATION_TYPE": "U",
    "NORAD_CAT_ID": "22049",
    "ELEMENT_SET_NO": "999",
    "REV_AT_EPOCH": "1434",
    "BSTAR": "0.00000000000000",
    "MEAN_MOTION_DOT": "-0.00001794",
    "MEAN_MOTION_DDOT": "0.0000000000000",
    "SEMIMAJOR_AXIS": "126820.531",
    "PERIOD": "7491.074",
    "APOAPSIS": "188727.390",
    "PERIAPSIS": "52157.403",
    "OBJECT_TYPE": "PAYLOAD",
    "RCS_SIZE": "LARGE",
    "COUNTRY_CODE": "JPN",
    "LAUNCH_DATE": "1992-07-24",
    "SITE": "AFETR",
    "DECAY_DATE": null,
    "FILE": "4334418",
    "GP_ID": "258605274",
    "TLE_LINE0": "0 GEOTAIL",
    "TLE_LINE1": "1 22049U 92044A   24159.60208292 -.00001794  00000-0  00000-0 0  9998",
    "TLE_LINE2": "2 22049  47.5110  21.6119 5384380 238.8697 358.2175  0.19222878 14343"
}</pre>
            <p>Last updated: 2024-06-03 03:20:32 UTC</p>
        </section>
    </main>
    <footer>
        <p>&copy; 2024 1663 Industries. All rights reserved.</p>
        <div class="social-media">
            <!-- Social media links -->
        </div>
    </footer>
</body>
</html>
